STARLINK-5984           
1 56329U 23058N   26047.98983499  .00000035  00000+0  66294-5 0  9990
2 56329  97.6052  50.8371 0002579  85.4956 274.6565 15.05645789155084
STARLINK-5991           
1 56331U 23058Q   26047.99076346  .00000272  00000+0  25688-4 0  9992
2 56331  97.6043  49.9248 0001891  63.4682 296.6736 15.01262015155028
STARLINK-5093           
1 56332U 23058R   26048.00187532  .00000142  00000+0  15577-4 0  9998
2 56332  97.6049  49.9122 0003672  27.7367 332.4053 15.01261584155029
STARLINK-5553           
1 56333U 23058S   26048.01751926  .00000319  00000+0  26350-4 0  9991
2 56333  97.6056  50.8019 0001935  87.6843 272.4605 15.05649759155088
STARLINK-5548           
1 56334U 23058T   26047.96491323  .00005634  00000+0  39427-3 0  9990
2 56334  97.6040  50.8696 0001742  84.4578 275.6848 15.05661459155084
STARLINK-5559           
1 56335U 23058U   26047.97876569  .00001227  00000+0  89306-4 0  9997
2 56335  97.6043  50.8530 0001975  93.1743 266.9710 15.05634322155084
STARLINK-5562           
1 56336U 23058V   26047.99447041 -.00000195  00000+0 -10659-4 0  9999
2 56336  97.6048  49.9205 0002862  49.0266 311.1206 15.01260063155024
STARLINK-5561           
1 56337U 23058W   26047.98545485 -.00001099  00000+0 -81028-4 0  9992
2 56337  97.6042  49.9237 0001979  76.6089 283.5356 15.01259788155021
STARLINK-5554           
1 56338U 23058X   26047.98706227  .00000122  00000+0  14051-4 0  9992
2 56338  97.6035  49.9229 0001778  95.9098 264.2329 15.01260735155026
STARLINK-5552           
1 56339U 23058Y   26047.97965462  .00000031  00000+0  69451-5 0  9994
2 56339  97.6043  49.9288 0000576 114.1724 245.9560 15.01260350155022
STARLINK-5540           
1 56340U 23058Z   26048.01197575 -.00006820  00000+0 -46826-3 0  9997
2 56340  97.6062  50.8088 0002045  44.7097 315.4294 15.05699964155082
STARLINK-5543           
1 56341U 23058AA  26047.98335561  .00000049  00000+0  83745-5 0  9990
2 56341  97.6040  49.9257 0001431  86.2477 273.8911 15.01261521155013
STARLINK-5955           
1 56342U 23058AB  26047.98706563 -.00000313  00000+0 -17503-4 0  9999
2 56342  97.6049  50.8420 0002213  83.9649 276.1830 15.05646968155089
STARLINK-5976           
1 56343U 23058AC  26048.01475490  .00001838  00000+0  13157-3 0  9998
2 56343  97.6063  50.8063 0002085  86.0827 274.0639 15.05654968155081
STARLINK-5974           
1 56344U 23058AD  26047.97599688 -.00000292  00000+0 -16049-4 0  9998
2 56344  97.6045  50.8567 0001908  78.9765 281.1676 15.05642060155085
STARLINK-5979           
1 56345U 23058AE  26047.97224441  .00000445  00000+0  39219-4 0  9993
2 56345  97.6055  49.9370 0002531 162.9334 197.1976 15.01245615155021
STARLINK-5837           
1 56346U 23058AF  26047.97594737  .00000288  00000+0  26933-4 0  9996
2 56346  97.6046  49.9329 0001109 175.4313 184.6922 15.01262611155029
