[{"OBJECT_NAME":"STARLINK-5984","OBJECT_ID":"2023-058N","EPOCH":"2026-02-16T23:45:21.743136","MEAN_MOTION":15.05645789,"ECCENTRICITY":0.0002579,"INCLINATION":97.6052,"RA_OF_ASC_NODE":50.8371,"ARG_OF_PERICENTER":85.4956,"MEAN_ANOMALY":274.6565,"EPHEMERIS_TYPE":0,"CLASSIFICATION_TYPE":"U","NORAD_CAT_ID":56329,"ELEMENT_SET_NO":999,"REV_AT_EPOCH":15508,"BSTAR":6.6294e-6,"MEAN_MOTION_DOT":3.5e-7,"MEAN_MOTION_DDOT":0},{"OBJECT_NAME":"STARLINK-5991","OBJECT_ID":"2023-058Q","EPOCH":"2026-02-16T23:46:41.962944","MEAN_MOTION":15.01262015,"ECCENTRICITY":0.0001891,"INCLINATION":97.6043,"RA_OF_ASC_NODE":49.9248,"ARG_OF_PERICENTER":63.4682,"MEAN_ANOMALY":296.6736,"EPHEMERIS_TYPE":0,"CLASSIFICATION_TYPE":"U","NORAD_CAT_ID":56331,"ELEMENT_SET_NO":999,"REV_AT_EPOCH":15502,"BSTAR":2.5688e-5,"MEAN_MOTION_DOT":2.72e-6,"MEAN_MOTION_DDOT":0},{"OBJECT_NAME":"STARLINK-5093","OBJECT_ID":"2023-058R","EPOCH":"2026-02-17T00:02:42.027648","MEAN_MOTION":15.01261584,"ECCENTRICITY":0.0003672,"INCLINATION":97.6049,"RA_OF_ASC_NODE":49.9122,"ARG_OF_PERICENTER":27.7367,"MEAN_ANOMALY":332.4053,"EPHEMERIS_TYPE":0,"CLASSIFICATION_TYPE":"U","NORAD_CAT_ID":56332,"ELEMENT_SET_NO":999,"REV_AT_EPOCH":15502,"BSTAR":1.5577e-5,"MEAN_MOTION_DOT":1.42e-6,"MEAN_MOTION_DDOT":0},{"OBJECT_NAME":"STARLINK-5553","OBJECT_ID":"2023-058S","EPOCH":"2026-02-17T00:25:13.664064","MEAN_MOTION":15.05649759,"ECCENTRICITY":0.0001935,"INCLINATION":97.6056,"RA_OF_ASC_NODE":50.8019,"ARG_OF_PERICENTER":87.6843,"MEAN_ANOMALY":272.4605,"EPHEMERIS_TYPE":0,"CLASSIFICATION_TYPE":"U","NORAD_CAT_ID":56333,"ELEMENT_SET_NO":999,"REV_AT_EPOCH":15508,"BSTAR":2.635e-5,"MEAN_MOTION_DOT":3.19e-6,"MEAN_MOTION_DDOT":0},{"OBJECT_NAME":"STARLINK-5548","OBJECT_ID":"2023-058T","EPOCH":"2026-02-16T23:09:28.503072","MEAN_MOTION":15.05661459,"ECCENTRICITY":0.0001742,"INCLINATION":97.604,"RA_OF_ASC_NODE":50.8696,"ARG_OF_PERICENTER":84.4578,"MEAN_ANOMALY":275.6848,"EPHEMERIS_TYPE":0,"CLASSIFICATION_TYPE":"U","NORAD_CAT_ID":56334,"ELEMENT_SET_NO":999,"REV_AT_EPOCH":15508,"BSTAR":0.00039427,"MEAN_MOTION_DOT":5.634e-5,"MEAN_MOTION_DDOT":0},{"OBJECT_NAME":"STARLINK-5559","OBJECT_ID":"2023-058U","EPOCH":"2026-02-16T23:29:25.355616","MEAN_MOTION":15.05634322,"ECCENTRICITY":0.0001975,"INCLINATION":97.6043,"RA_OF_ASC_NODE":50.853,"ARG_OF_PERICENTER":93.1743,"MEAN_ANOMALY":266.971,"EPHEMERIS_TYPE":0,"CLASSIFICATION_TYPE":"U","NORAD_CAT_ID":56335,"ELEMENT_SET_NO":999,"REV_AT_EPOCH":15508,"BSTAR":8.9306e-5,"MEAN_MOTION_DOT":1.227e-5,"MEAN_MOTION_DDOT":0},{"OBJECT_NAME":"STARLINK-5562","OBJECT_ID":"2023-058V","EPOCH":"2026-02-16T23:52:02.243424","MEAN_MOTION":15.01260063,"ECCENTRICITY":0.0002862,"INCLINATION":97.6048,"RA_OF_ASC_NODE":49.9205,"ARG_OF_PERICENTER":49.0266,"MEAN_ANOMALY":311.1206,"EPHEMERIS_TYPE":0,"CLASSIFICATION_TYPE":"U","NORAD_CAT_ID":56336,"ELEMENT_SET_NO":999,"REV_AT_EPOCH":15502,"BSTAR":-1.0659e-5,"MEAN_MOTION_DOT":-1.95e-6,"MEAN_MOTION_DDOT":0},{"OBJECT_NAME":"STARLINK-5561","OBJECT_ID":"2023-058W","EPOCH":"2026-02-16T23:39:03.299040","MEAN_MOTION":15.01259788,"ECCENTRICITY":0.0001979,"INCLINATION":97.6042,"RA_OF_ASC_NODE":49.9237,"ARG_OF_PERICENTER":76.6089,"MEAN_ANOMALY":283.5356,"EPHEMERIS_TYPE":0,"CLASSIFICATION_TYPE":"U","NORAD_CAT_ID":56337,"ELEMENT_SET_NO":999,"REV_AT_EPOCH":15502,"BSTAR":-8.1028e-5,"MEAN_MOTION_DOT":-1.099e-5,"MEAN_MOTION_DDOT":0},{"OBJECT_NAME":"STARLINK-5554","OBJECT_ID":"2023-058X","EPOCH":"2026-02-16T23:41:22.180128","MEAN_MOTION":15.01260735,"ECCENTRICITY":0.0001778,"INCLINATION":97.6035,"RA_OF_ASC_NODE":49.9229,"ARG_OF_PERICENTER":95.9098,"MEAN_ANOMALY":264.2329,"EPHEMERIS_TYPE":0,"CLASSIFICATION_TYPE":"U","NORAD_CAT_ID":56338,"ELEMENT_SET_NO":999,"REV_AT_EPOCH":15502,"BSTAR":1.4051e-5,"MEAN_MOTION_DOT":1.22e-6,"MEAN_MOTION_DDOT":0},{"OBJECT_NAME":"STARLINK-5552","OBJECT_ID":"2023-058Y","EPOCH":"2026-02-16T23:30:42.159168","MEAN_MOTION":15.0126035,"ECCENTRICITY":5.76e-5,"INCLINATION":97.6043,"RA_OF_ASC_NODE":49.9288,"ARG_OF_PERICENTER":114.1724,"MEAN_ANOMALY":245.956,"EPHEMERIS_TYPE":0,"CLASSIFICATION_TYPE":"U","NORAD_CAT_ID":56339,"ELEMENT_SET_NO":999,"REV_AT_EPOCH":15502,"BSTAR":6.9451e-6,"MEAN_MOTION_DOT":3.1e-7,"MEAN_MOTION_DDOT":0},{"OBJECT_NAME":"STARLINK-5540","OBJECT_ID":"2023-058Z","EPOCH":"2026-02-17T00:17:14.704800","MEAN_MOTION":15.05699964,"ECCENTRICITY":0.0002045,"INCLINATION":97.6062,"RA_OF_ASC_NODE":50.8088,"ARG_OF_PERICENTER":44.7097,"MEAN_ANOMALY":315.4294,"EPHEMERIS_TYPE":0,"CLASSIFICATION_TYPE":"U","NORAD_CAT_ID":56340,"ELEMENT_SET_NO":999,"REV_AT_EPOCH":15508,"BSTAR":-0.00046826,"MEAN_MOTION_DOT":-6.82e-5,"MEAN_MOTION_DDOT":0},{"OBJECT_NAME":"STARLINK-5543","OBJECT_ID":"2023-058AA","EPOCH":"2026-02-16T23:36:01.924704","MEAN_MOTION":15.01261521,"ECCENTRICITY":0.0001431,"INCLINATION":97.604,"RA_OF_ASC_NODE":49.9257,"ARG_OF_PERICENTER":86.2477,"MEAN_ANOMALY":273.8911,"EPHEMERIS_TYPE":0,"CLASSIFICATION_TYPE":"U","NORAD_CAT_ID":56341,"ELEMENT_SET_NO":999,"REV_AT_EPOCH":15501,"BSTAR":8.3745e-6,"MEAN_MOTION_DOT":4.9e-7,"MEAN_MOTION_DDOT":0},{"OBJECT_NAME":"STARLINK-5955","OBJECT_ID":"2023-058AB","EPOCH":"2026-02-16T23:41:22.470432","MEAN_MOTION":15.05646968,"ECCENTRICITY":0.0002213,"INCLINATION":97.6049,"RA_OF_ASC_NODE":50.842,"ARG_OF_PERICENTER":83.9649,"MEAN_ANOMALY":276.183,"EPHEMERIS_TYPE":0,"CLASSIFICATION_TYPE":"U","NORAD_CAT_ID":56342,"ELEMENT_SET_NO":999,"REV_AT_EPOCH":15508,"BSTAR":-1.7503e-5,"MEAN_MOTION_DOT":-3.13e-6,"MEAN_MOTION_DDOT":0},{"OBJECT_NAME":"STARLINK-5976","OBJECT_ID":"2023-058AC","EPOCH":"2026-02-17T00:21:14.823360","MEAN_MOTION":15.05654968,"ECCENTRICITY":0.0002085,"INCLINATION":97.6063,"RA_OF_ASC_NODE":50.8063,"ARG_OF_PERICENTER":86.0827,"MEAN_ANOMALY":274.0639,"EPHEMERIS_TYPE":0,"CLASSIFICATION_TYPE":"U","NORAD_CAT_ID":56343,"ELEMENT_SET_NO":999,"REV_AT_EPOCH":15508,"BSTAR":0.00013157,"MEAN_MOTION_DOT":1.838e-5,"MEAN_MOTION_DDOT":0},{"OBJECT_NAME":"STARLINK-5974","OBJECT_ID":"2023-058AD","EPOCH":"2026-02-16T23:25:26.130432","MEAN_MOTION":15.0564206,"ECCENTRICITY":0.0001908,"INCLINATION":97.6045,"RA_OF_ASC_NODE":50.8567,"ARG_OF_PERICENTER":78.9765,"MEAN_ANOMALY":281.1676,"EPHEMERIS_TYPE":0,"CLASSIFICATION_TYPE":"U","NORAD_CAT_ID":56344,"ELEMENT_SET_NO":999,"REV_AT_EPOCH":15508,"BSTAR":-1.6049e-5,"MEAN_MOTION_DOT":-2.92e-6,"MEAN_MOTION_DDOT":0},{"OBJECT_NAME":"STARLINK-5979","OBJECT_ID":"2023-058AE","EPOCH":"2026-02-16T23:20:01.917024","MEAN_MOTION":15.01245615,"ECCENTRICITY":0.0002531,"INCLINATION":97.6055,"RA_OF_ASC_NODE":49.937,"ARG_OF_PERICENTER":162.9334,"MEAN_ANOMALY":197.1976,"EPHEMERIS_TYPE":0,"CLASSIFICATION_TYPE":"U","NORAD_CAT_ID":56345,"ELEMENT_SET_NO":999,"REV_AT_EPOCH":15502,"BSTAR":3.9219e-5,"MEAN_MOTION_DOT":4.45e-6,"MEAN_MOTION_DDOT":0},{"OBJECT_NAME":"STARLINK-5837","OBJECT_ID":"2023-058AF","EPOCH":"2026-02-16T23:25:21.852768","MEAN_MOTION":15.01262611,"ECCENTRICITY":0.0001109,"INCLINATION":97.6046,"RA_OF_ASC_NODE":49.9329,"ARG_OF_PERICENTER":175.4313,"MEAN_ANOMALY":184.6922,"EPHEMERIS_TYPE":0,"CLASSIFICATION_TYPE":"U","NORAD_CAT_ID":56346,"ELEMENT_SET_NO":999,"REV_AT_EPOCH":15502,"BSTAR":2.6933e-5,"MEAN_MOTION_DOT":2.88e-6,"MEAN_MOTION_DDOT":0}]
